{"type": "FeatureCollection", "features": [ {"type": "Feature", "properties": {"norad_id": 40697, "name": "SENTINEL-2A", "group": "resource", "lat": -63.69111122780304, "lon": -148.18724133642212, "alt_km": 796.8293253234369, "timestamp": "2025-12-02T21:34:00.930352+00:00", "meta": {"OBJECT_NAME": "SENTINEL-2A", "OBJECT_ID": "2015-028A", "EPOCH": "2025-12-02T12:02:01.963104", "MEAN_MOTION": 14.30820689, "ECCENTRICITY": 0.0001046, "INCLINATION": 98.5703, "RA_OF_ASC_NODE": 49.1798, "ARG_OF_PERICENTER": 93.9661, "MEAN_ANOMALY": 266.1642, "EPHEMERIS_TYPE": 0, "CLASSIFICATION_TYPE": "U", "NORAD_CAT_ID": 40697, "ELEMENT_SET_NO": 999, "REV_AT_EPOCH": 54560, "BSTAR": 0.00010264, "MEAN_MOTION_DOT": 2.25e-06, "MEAN_MOTION_DDOT": 0}, "tle": {"line1": "1 40697U 15028A   25336.50141161  .00000225  00000+0  10264-3 0  9994", "line2": "2 40697  98.5703  49.1798 0001046  93.9661 266.1642 14.30820689545601"}}, "geometry": {"type": "Point", "coordinates": [-148.18724133642212, -63.69111122780304]}}, {"type": "Feature", "properties": {"norad_id": 40701, "name": "GAOFEN-8", "group": "resource", "lat": 82.30262312766308, "lon": 63.4668497600269, "alt_km": 443.4968824497073, "timestamp": "2025-12-02T21:34:00.930362+00:00", "meta": {"OBJECT_NAME": "GAOFEN-8", "OBJECT_ID": "2015-030A", "EPOCH": "2025-12-02T13:22:07.304736", "MEAN_MOTION": 15.38010733, "ECCENTRICITY": 0.0011163, "INCLINATION": 97.6906, "RA_OF_ASC_NODE": 154.2052, "ARG_OF_PERICENTER": 174.0263, "MEAN_ANOMALY": 186.1116, "EPHEMERIS_TYPE": 0, "CLASSIFICATION_TYPE": "U", "NORAD_CAT_ID": 40701, "ELEMENT_SET_NO": 999, "REV_AT_EPOCH": 58114, "BSTAR": 0.00061638, "MEAN_MOTION_DOT": 0.0002305, "MEAN_MOTION_DDOT": 0}, "tle": {"line1": "1 40701U 15030A   25336.55702899  .00023050  00000+0  61638-3 0  9991", "line2": "2 40701  97.6906 154.2052 0011163 174.0263 186.1116 15.38010733581149"}}, "geometry": {"type": "Point", "coordinates": [63.4668497600269, 82.30262312766308]}}, {"type": "Feature", "properties": {"norad_id": 40718, "name": "CARBONITE 1 (CBNT-1)", "group": "resource", "lat": -8.192946643838477, "lon": -22.731268215315684, "alt_km": 616.3259513029061, "timestamp": "2025-12-02T21:34:00.930372+00:00", "meta": {"OBJECT_NAME": "CARBONITE 1 (CBNT-1)", "OBJECT_ID": "2015-032D", "EPOCH": "2025-12-02T12:37:18.242976", "MEAN_MOTION": 14.82664906, "ECCENTRICITY": 0.0013789, "INCLINATION": 97.6401, "RA_OF_ASC_NODE": 158.02, "ARG_OF_PERICENTER": 216.0725, "MEAN_ANOMALY": 143.956, "EPHEMERIS_TYPE": 0, "CLASSIFICATION_TYPE": "U", "NORAD_CAT_ID": 40718, "ELEMENT_SET_NO": 999, "REV_AT_EPOCH": 56019, "BSTAR": 0.00043691, "MEAN_MOTION_DOT": 3.478e-05, "MEAN_MOTION_DDOT": 0}, "tle": {"line1": "1 40718U 15032D   25336.52590559  .00003478  00000+0  43691-3 0  9997", "line2": "2 40718  97.6401 158.0200 0013789 216.0725 143.9560 14.82664906560191"}}, "geometry": {"type": "Point", "coordinates": [-22.731268215315684, -8.192946643838477]}}, {"type": "Feature", "properties": {"norad_id": 40878, "name": "YAOGAN-27", "group": "resource", "lat": 20.534742900030842, "lon": -36.86401635310641, "alt_km": 1197.533943636774, "timestamp": "2025-12-02T21:34:00.930382+00:00", "meta": {"OBJECT_NAME": "YAOGAN-27", "OBJECT_ID": "2015-040A", "EPOCH": "2025-12-02T12:20:19.362336", "MEAN_MOTION": 13.16059631, "ECCENTRICITY": 0.0007756, "INCLINATION": 100.1003, "RA_OF_ASC_NODE": 326.597, "ARG_OF_PERICENTER": 311.8966, "MEAN_ANOMALY": 48.1486, "EPHEMERIS_TYPE": 0, "CLASSIFICATION_TYPE": "U", "NORAD_CAT_ID": 40878, "ELEMENT_SET_NO": 999, "REV_AT_EPOCH": 49179, "BSTAR": 5.539e-05, "MEAN_MOTION_DOT": -2.1e-07, "MEAN_MOTION_DDOT": 0}, "tle": {"line1": "1 40878U 15040A   25336.51411299 -.00000021  00000+0  55390-4 0  9997", "line2": "2 40878 100.1003 326.5970 0007756 311.8966  48.1486 13.16059631491791"}}, "geometry": {"type": "Point", "coordinates": [-36.86401635310641, 20.534742900030842]}}, {"type": "Feature", "properties": {"norad_id": 40894, "name": "GAOFEN-9 01", "group": "resource", "lat": 59.010146972385996, "lon": -150.78006217394898, "alt_km": 604.403854047835, "timestamp": "2025-12-02T21:34:00.930392+00:00", "meta": {"OBJECT_NAME": "GAOFEN-9 01", "OBJECT_ID": "2015-047A", "EPOCH": "2025-12-02T12:55:46.934688", "MEAN_MOTION": 14.82380155, "ECCENTRICITY": 0.002897, "INCLINATION": 97.6557, "RA_OF_ASC_NODE": 15.9344, "ARG_OF_PERICENTER": 66.4188, "MEAN_ANOMALY": 294.0064, "EPHEMERIS_TYPE": 0, "CLASSIFICATION_TYPE": "U", "NORAD_CAT_ID": 40894, "ELEMENT_SET_NO": 999, "REV_AT_EPOCH": 55105, "BSTAR": 0.00020788, "MEAN_MOTION_DOT": 1.625e-05, "MEAN_MOTION_DDOT": 0}, "tle": {"line1": "1 40894U 15047A   25336.53873767  .00001625  00000+0  20788-3 0  9998", "line2": "2 40894  97.6557  15.9344 0028970  66.4188 294.0064 14.82380155551059"}}, "geometry": {"type": "Point", "coordinates": [-150.78006217394898, 59.010146972385996]}}, {"type": "Feature", "properties": {"norad_id": 41026, "name": "YAOGAN-28", "group": "resource", "lat": -51.65804362586639, "lon": -74.32998267626273, "alt_km": 498.2034432559867, "timestamp": "2025-12-02T21:34:00.930403+00:00", "meta": {"OBJECT_NAME": "YAOGAN-28", "OBJECT_ID": "2015-064A", "EPOCH": "2025-12-02T12:40:24.039264", "MEAN_MOTION": 15.2407305, "ECCENTRICITY": 0.001187, "INCLINATION": 97.2795, "RA_OF_ASC_NODE": 114.6109, "ARG_OF_PERICENTER": 160.0739, "MEAN_ANOMALY": 200.0964, "EPHEMERIS_TYPE": 0, "CLASSIFICATION_TYPE": "U", "NORAD_CAT_ID": 41026, "ELEMENT_SET_NO": 999, "REV_AT_EPOCH": 56069, "BSTAR": 0.00051149, "MEAN_MOTION_DOT": 0.0001238, "MEAN_MOTION_DDOT": 0}, "tle": {"line1": "1 41026U 15064A   25336.52805601  .00012380  00000+0  51149-3 0  9991", "line2": "2 41026  97.2795 114.6109 0011870 160.0739 200.0964 15.24073050560693"}}, "geometry": {"type": "Point", "coordinates": [-74.32998267626273, -51.65804362586639]}}, {"type": "Feature", "properties": {"norad_id": 41038, "name": "YAOGAN-29", "group": "resource", "lat": -9.386462130390948, "lon": 1.3743233004857418, "alt_km": 623.9044552323785, "timestamp": "2025-12-02T21:34:00.930413+00:00", "meta": {"OBJECT_NAME": "YAOGAN-29", "OBJECT_ID": "2015-069A", "EPOCH": "2025-12-02T13:30:43.888608", "MEAN_MOTION": 14.82864223, "ECCENTRICITY": 8.28e-05, "INCLINATION": 98.0229, "RA_OF_ASC_NODE": 359.7016, "ARG_OF_PERICENTER": 10.1037, "MEAN_ANOMALY": 350.0193, "EPHEMERIS_TYPE": 0, "CLASSIFICATION_TYPE": "U", "NORAD_CAT_ID": 41038, "ELEMENT_SET_NO": 999, "REV_AT_EPOCH": 54148, "BSTAR": 9.2829e-05, "MEAN_MOTION_DOT": 6.98e-06, "MEAN_MOTION_DDOT": 0}, "tle": {"line1": "1 41038U 15069A   25336.56300797  .00000698  00000+0  92829-4 0  9999", "line2": "2 41038  98.0229 359.7016 0000828  10.1037 350.0193 14.82864223541482"}}, "geometry": {"type": "Point", "coordinates": [1.3743233004857418, -9.386462130390948]}}, {"type": "Feature", "properties": {"norad_id": 41167, "name": "KENT RIDGE 1", "group": "resource", "lat": 11.107690900043877, "lon": 56.920502722166674, "alt_km": 501.574884454566, "timestamp": "2025-12-02T21:34:00.930424+00:00", "meta": {"OBJECT_NAME": "KENT RIDGE 1", "OBJECT_ID": "2015-077B", "EPOCH": "2025-12-02T05:15:28.609632", "MEAN_MOTION": 15.21503241, "ECCENTRICITY": 0.0008704, "INCLINATION": 14.9806, "RA_OF_ASC_NODE": 289.1971, "ARG_OF_PERICENTER": 341.7782, "MEAN_ANOMALY": 18.2228, "EPHEMERIS_TYPE": 0, "CLASSIFICATION_TYPE": "U", "NORAD_CAT_ID": 41167, "ELEMENT_SET_NO": 999, "REV_AT_EPOCH": 55103, "BSTAR": 0.00021780995, "MEAN_MOTION_DOT": 5.81e-05, "MEAN_MOTION_DDOT": 0}, "tle": {"line1": "1 41167U 15077B   25336.21908113  .00005810  00000+0  21781-3 0  9998", "line2": "2 41167  14.9806 289.1971 0008704 341.7782  18.2228 15.21503241551038"}}, "geometry": {"type": "Point", "coordinates": [56.920502722166674, 11.107690900043877]}}, {"type": "Feature", "properties": {"norad_id": 41194, "name": "GAOFEN-4", "group": "resource", "lat": 0.1207410443305521, "lon": 141.1220791996018, "alt_km": 35774.09904287184, "timestamp": "2025-12-02T21:34:00.930436+00:00", "meta": {"OBJECT_NAME": "GAOFEN-4", "OBJECT_ID": "2015-083A", "EPOCH": "2025-12-02T16:32:21.615648", "MEAN_MOTION": 1.00273983, "ECCENTRICITY": 0.0003748, "INCLINATION": 0.1427, "RA_OF_ASC_NODE": 80.6207, "ARG_OF_PERICENTER": 103.9945, "MEAN_ANOMALY": 240.9417, "EPHEMERIS_TYPE": 0, "CLASSIFICATION_TYPE": "U", "NORAD_CAT_ID": 41194, "ELEMENT_SET_NO": 999, "REV_AT_EPOCH": 3655, "BSTAR": 0, "MEAN_MOTION_DOT": -3.15e-06, "MEAN_MOTION_DDOT": 0}, "tle": {"line1": "1 41194U 15083A   25336.68913907 -.00000315  00000+0  00000+0 0  9996", "line2": "2 41194   0.1427  80.6207 0003748 103.9945 240.9417  1.00273983 36550"}}, "geometry": {"type": "Point", "coordinates": [141.1220791996018, 0.1207410443305521]}}, {"type": "Feature", "properties": {"norad_id": 41240, "name": "JASON-3", "group": "resource", "lat": 50.72872200907336, "lon": -148.54120723766366, "alt_km": 1310.0267648481713, "timestamp": "2025-12-02T21:34:00.930447+00:00", "meta": {"OBJECT_NAME": "JASON-3", "OBJECT_ID": "2016-002A", "EPOCH": "2025-12-02T11:56:48.212736", "MEAN_MOTION": 12.8762595, "ECCENTRICITY": 0.0007148, "INCLINATION": 66.0392, "RA_OF_ASC_NODE": 179.3572, "ARG_OF_PERICENTER": 270.2646, "MEAN_ANOMALY": 89.7554, "EPHEMERIS_TYPE": 0, "CLASSIFICATION_TYPE": "U", "NORAD_CAT_ID": 41240, "ELEMENT_SET_NO": 999, "REV_AT_EPOCH": 46192, "BSTAR": 0.00023237, "MEAN_MOTION_DOT": -3e-08, "MEAN_MOTION_DDOT": 0}, "tle": {"line1": "1 41240U 16002A   25336.49778024 -.00000003  00000+0  23237-3 0  9993", "line2": "2 41240  66.0392 179.3572 0007148 270.2646  89.7554 12.87625950461925"}}, "geometry": {"type": "Point", "coordinates": [-148.54120723766366, 50.72872200907336]}}]}